NUSAT-45 (UZMASAT-1)    
1 62640U 25009AH  26068.15592621  .00012539  00000+0  48087-3 0  9996
2 62640  97.3985 150.3373 0001172   1.4631 358.6611 15.26632732 63634
STARLINK-34212          
1 64139U 25111S   26068.41647915  .00027646  00000+0  10101-2 0  9991
2 64139  43.0059  79.2366 0001788 282.8716  77.1936 15.27588915 45426
